[
    {
        "Altitude(m)": 707240.6866614119,
        "Argument of Periapsis(deg)": 0.0022780242373254137,
        "Eccentricity": 0.0,
        "Inclination(deg)": 45.0,
        "Latitude(deg)": 44.85371527541161,
        "Longitude(deg)": -148.4152754160618,
        "Mean Anomaly(deg)": 84.1248433294962,
        "RAAN(deg)": 229.99784961170835,
        "Satellite Name": "Constellation 1 1017",
        "Satellite Number": 1017,
        "Semi-Major Axis(m)": 7083131.272910544,
        "Time(s)": 38
    },
    {
        "Altitude(m)": 707242.0890312911,
        "Argument of Periapsis(deg)": 0.002337972243570819,
        "Eccentricity": 0.0,
        "Inclination(deg)": 45.0,
        "Latitude(deg)": 44.85988148865435,
        "Longitude(deg)": -148.33437417041486,
        "Mean Anomaly(deg)": 84.18554446974609,
        "RAAN(deg)": 229.9977930225428,
        "Satellite Name": "Constellation 1 1017",
        "Satellite Number": 1017,
        "Semi-Major Axis(m)": 7083131.272910544,
        "Time(s)": 39
    },
    {
        "Altitude(m)": 707243.477152795,
        "Argument of Periapsis(deg)": 0.0023979202498162246,
        "Eccentricity": 0.0,
        "Inclination(deg)": 45.0,
        "Latitude(deg)": 44.86598443048207,
        "Longitude(deg)": -148.25345488170237,
        "Mean Anomaly(deg)": 84.24624560999598,
        "RAAN(deg)": 229.9977364333772,
        "Satellite Name": "Constellation 1 1017",
        "Satellite Number": 1017,
        "Semi-Major Axis(m)": 7083131.272910544,
        "Time(s)": 40
    },
    {
        "Altitude(m)": 707244.851017832,
        "Argument of Periapsis(deg)": 0.00245786825606163,
        "Eccentricity": 0.0,
        "Inclination(deg)": 45.0,
        "Latitude(deg)": 44.872024074296284,
        "Longitude(deg)": -148.17251772846936,
        "Mean Anomaly(deg)": 84.30694675024586,
        "RAAN(deg)": 229.99767984421166,
        "Satellite Name": "Constellation 1 1017",
        "Satellite Number": 1017,
        "Semi-Major Axis(m)": 7083131.272910544,
        "Time(s)": 41
    },
    {
        "Altitude(m)": 707246.2106183951,
        "Argument of Periapsis(deg)": 0.002517816262307036,
        "Eccentricity": 0.0,
        "Inclination(deg)": 45.0,
        "Latitude(deg)": 44.878000393760495,
        "Longitude(deg)": -148.09156288957072,
        "Mean Anomaly(deg)": 84.3676478904958,
        "RAAN(deg)": 229.99762325504605,
        "Satellite Name": "Constellation 1 1017",
        "Satellite Number": 1017,
        "Semi-Major Axis(m)": 7083131.272910544,
        "Time(s)": 42
    },
    {
        "Altitude(m)": 707247.5559465614,
        "Argument of Periapsis(deg)": 0.0025777642685524413,
        "Eccentricity": 0.0,
        "Inclination(deg)": 45.0,
        "Latitude(deg)": 44.883913362800705,
        "Longitude(deg)": -148.01059054416925,
        "Mean Anomaly(deg)": 84.42834903074568,
        "RAAN(deg)": 229.9975666658805,
        "Satellite Name": "Constellation 1 1017",
        "Satellite Number": 1017,
        "Semi-Major Axis(m)": 7083131.272910544,
        "Time(s)": 43
    },
    {
        "Altitude(m)": 707248.8869944918,
        "Argument of Periapsis(deg)": 0.002637712274797847,
        "Eccentricity": 0.0,
        "Inclination(deg)": 45.0,
        "Latitude(deg)": 44.88976295560635,
        "Longitude(deg)": -147.9296010398286,
        "Mean Anomaly(deg)": 84.48905017099557,
        "RAAN(deg)": 229.99751007671495,
        "Satellite Name": "Constellation 1 1017",
        "Satellite Number": 1017,
        "Semi-Major Axis(m)": 7083131.272910544,
        "Time(s)": 44
    },
    {
        "Altitude(m)": 707250.2037544313,
        "Argument of Periapsis(deg)": 0.0026976602810432526,
        "Eccentricity": 0.0,
        "Inclination(deg)": 45.0,
        "Latitude(deg)": 44.895549146629584,
        "Longitude(deg)": -147.8485942201234,
        "Mean Anomaly(deg)": 84.54975131124546,
        "RAAN(deg)": 229.9974534875494,
        "Satellite Name": "Constellation 1 1017",
        "Satellite Number": 1017,
        "Semi-Major Axis(m)": 7083131.272910544,
        "Time(s)": 45
    },
    {
        "Altitude(m)": 707251.5062187061,
        "Argument of Periapsis(deg)": 0.0027576082872886585,
        "Eccentricity": 0.0,
        "Inclination(deg)": 45.0,
        "Latitude(deg)": 44.90127191058761,
        "Longitude(deg)": -147.76757043321737,
        "Mean Anomaly(deg)": 84.6104524514954,
        "RAAN(deg)": 229.99739689838376,
        "Satellite Name": "Constellation 1 1017",
        "Satellite Number": 1017,
        "Semi-Major Axis(m)": 7083131.272910544,
        "Time(s)": 46
    },
    {
        "Altitude(m)": 707252.7943797277,
        "Argument of Periapsis(deg)": 0.0028175562935340644,
        "Eccentricity": 0.0,
        "Inclination(deg)": 45.0,
        "Latitude(deg)": 44.90693122246195,
        "Longitude(deg)": -147.68652985947324,
        "Mean Anomaly(deg)": 84.67115359174528,
        "RAAN(deg)": 229.9973403092182,
        "Satellite Name": "Constellation 1 1017",
        "Satellite Number": 1017,
        "Semi-Major Axis(m)": 7083131.272910544,
        "Time(s)": 47
    },
    {
        "Altitude(m)": 707254.0682299959,
        "Argument of Periapsis(deg)": 0.00287750429977947,
        "Eccentricity": 0.0,
        "Inclination(deg)": 45.0,
        "Latitude(deg)": 44.91252705749932,
        "Longitude(deg)": -147.60547267954638,
        "Mean Anomaly(deg)": 84.73185473199517,
        "RAAN(deg)": 229.99728372005265,
        "Satellite Name": "Constellation 1 1017",
        "Satellite Number": 1017,
        "Semi-Major Axis(m)": 7083131.272910544,
        "Time(s)": 48
    },
    {
        "Altitude(m)": 707255.327762091,
        "Argument of Periapsis(deg)": 0.002937452306024875,
        "Eccentricity": 0.0,
        "Inclination(deg)": 45.0,
        "Latitude(deg)": 44.918059391212104,
        "Longitude(deg)": -147.5243990743821,
        "Mean Anomaly(deg)": 84.7925558722451,
        "RAAN(deg)": 229.9972271308871,
        "Satellite Name": "Constellation 1 1017",
        "Satellite Number": 1017,
        "Semi-Major Axis(m)": 7083131.272910544,
        "Time(s)": 49
    },
    {
        "Altitude(m)": 707256.5729686735,
        "Argument of Periapsis(deg)": 0.0029974003122702807,
        "Eccentricity": 0.0,
        "Inclination(deg)": 45.0,
        "Latitude(deg)": 44.923528199378886,
        "Longitude(deg)": -147.44330922521257,
        "Mean Anomaly(deg)": 84.85325701249494,
        "RAAN(deg)": 229.99717054172154,
        "Satellite Name": "Constellation 1 1017",
        "Satellite Number": 1017,
        "Semi-Major Axis(m)": 7083131.272910544,
        "Time(s)": 50
    },
    {
        "Altitude(m)": 707257.8038424929,
        "Argument of Periapsis(deg)": 0.0030573483185156866,
        "Eccentricity": 0.0,
        "Inclination(deg)": 45.0,
        "Latitude(deg)": 44.928933458044966,
        "Longitude(deg)": -147.36220331355375,
        "Mean Anomaly(deg)": 84.91395815274484,
        "RAAN(deg)": 229.9971139525559,
        "Satellite Name": "Constellation 1 1017",
        "Satellite Number": 1017,
        "Semi-Major Axis(m)": 7083131.272910544,
        "Time(s)": 51
    },
    {
        "Altitude(m)": 707259.0203763839,
        "Argument of Periapsis(deg)": 0.003117296324761092,
        "Eccentricity": 0.0,
        "Inclination(deg)": 45.0,
        "Latitude(deg)": 44.93427514352305,
        "Longitude(deg)": -147.28108168929967,
        "Mean Anomaly(deg)": 84.97465929299472,
        "RAAN(deg)": 229.99705736339035,
        "Satellite Name": "Constellation 1 1017",
        "Satellite Number": 1017,
        "Semi-Major Axis(m)": 7083131.272910544,
        "Time(s)": 52
    },
    {
        "Altitude(m)": 707260.2225632601,
        "Argument of Periapsis(deg)": 0.0031772443310064975,
        "Eccentricity": 0.0,
        "Inclination(deg)": 45.0,
        "Latitude(deg)": 44.93955323239272,
        "Longitude(deg)": -147.19994419833125,
        "Mean Anomaly(deg)": 85.03536043324465,
        "RAAN(deg)": 229.9970007742248,
        "Satellite Name": "Constellation 1 1017",
        "Satellite Number": 1017,
        "Semi-Major Axis(m)": 7083131.272910544,
        "Time(s)": 53
    },
    {
        "Altitude(m)": 707261.4103961241,
        "Argument of Periapsis(deg)": 0.0032371923372519038,
        "Eccentricity": 0.0,
        "Inclination(deg)": 45.0,
        "Latitude(deg)": 44.94476770150252,
        "Longitude(deg)": -147.11879119109565,
        "Mean Anomaly(deg)": 85.09606157349454,
        "RAAN(deg)": 229.99694418505925,
        "Satellite Name": "Constellation 1 1017",
        "Satellite Number": 1017,
        "Semi-Major Axis(m)": 7083131.272910544,
        "Time(s)": 54
    },
    {
        "Altitude(m)": 707262.5838680605,
        "Argument of Periapsis(deg)": 0.0032971403434973088,
        "Eccentricity": 0.0,
        "Inclination(deg)": 45.0,
        "Latitude(deg)": 44.949918527969366,
        "Longitude(deg)": -147.03762285021477,
        "Mean Anomaly(deg)": 85.15676271374443,
        "RAAN(deg)": 229.9968875958937,
        "Satellite Name": "Constellation 1 1017",
        "Satellite Number": 1017,
        "Semi-Major Axis(m)": 7083131.272910544,
        "Time(s)": 55
    },
    {
        "Altitude(m)": 707263.7429722382,
        "Argument of Periapsis(deg)": 0.0033570883497427146,
        "Eccentricity": 0.0,
        "Inclination(deg)": 45.0,
        "Latitude(deg)": 44.95500568917927,
        "Longitude(deg)": -146.95643935857947,
        "Mean Anomaly(deg)": 85.21746385399436,
        "RAAN(deg)": 229.99683100672806,
        "Satellite Name": "Constellation 1 1017",
        "Satellite Number": 1017,
        "Semi-Major Axis(m)": 7083131.272910544,
        "Time(s)": 56
    }
]